GLOBALSTAR M057         
1 25943U 99058A   24187.85376613 -.00000034  00000+0  53642-3 0  9995
2 25943  51.9971 251.0682 0001878  27.9946 332.1005 12.24788816124493
GLOBALSTAR M059         
1 25944U 99058B   24187.91982146 -.00000028  00000+0  71880-3 0  9994
2 25944  52.0029  63.9247 0001040  28.5988  88.2848 11.99964016532475
GLOBALSTAR M056         
1 25945U 99058C   24187.95025227 -.00000124  00000+0 -42088-3 0  9993
2 25945  51.9975  74.6921 0000348 141.3311 231.9667 12.04775244120891
GLOBALSTAR M031         
1 25946U 99058D   24187.80635583 -.00000121  00000+0 -31069-3 0  9994
2 25946  51.9979 348.1470 0001648 163.9065 346.6769 12.16010963122403
GLOBALSTAR M039         
1 25961U 99062A   24187.90607835 -.00000047  00000+0  31489-3 0  9998
2 25961  51.9830 243.3969 0002432 294.2224  65.8388 12.62295987136484
GLOBALSTAR M034         
1 25962U 99062B   24187.77746501 -.00000071  00000+0  15963-3 0  9994
2 25962  51.9835 191.8394 0013663 107.7035  62.9992 11.79428663 97510
GLOBALSTAR M029         
1 25963U 99062C   24187.74663295 -.00000069  00000+0  21803-3 0  9997
2 25963  51.9820 312.7286 0003200 149.4082   1.1813 11.99879855127538
GLOBALSTAR M061         
1 25964U 99062D   24187.83830238 -.00000064  00000+0  26149-3 0  9994
2 25964  51.9814  11.1254 0006593  40.3926 101.3055 11.76762356 80408
